KUIPER-00438            
1 68940U 26098X   26195.16668980 -.01654080  00000+0 -94259-1 0  9994
2 68940  51.8870 299.0397 0004705 290.6286  31.9450 15.15889452  5797
KUIPER-00439            
1 68941U 26098Y   26195.16668980 -.01693823  00000+0 -89245-1 0  9992
2 68941  51.8839 299.1536 0003865 270.0609  31.9603 15.18695588  4074
KUIPER-00440            
1 68942U 26098Z   26194.60085351  .00009444  00000+0  31758-3 0  9991
2 68942  51.8794 301.2765 0002624 296.2059  63.8655 15.31482621 11396
KUIPER-00442            
1 68943U 26098AA  26194.55581711  .00011530  00000+0  35033-3 0  9996
2 68943  51.8806 300.9940 0003429 257.7134 102.3468 15.34511403 11397
KUIPER-00446            
1 68944U 26098AB  26195.16668980 -.01060492  00000+0 -42700-1 0  9990
2 68944  51.8790 298.2797 0004263 240.0567 120.0158 15.27234003  5252
KUIPER-00451            
1 68945U 26098AC  26195.16668980 -.00000568  00000+0 -36726-4 0  9992
2 68945  51.8983 303.8033 0004838 246.1714 188.1690 14.86879458  5824
KUIPER-00452            
1 68946U 26098AD  26194.55687330  .00013069  00000+0  37588-3 0  9999
2 68946  51.8762 300.2404 0002680 261.9240  98.1442 15.36120071 11407
KUIPER-00453            
1 68947U 26098AE  26194.51598588  .00013117  00000+0  36109-3 0  9994
2 68947  51.8759 299.9786 0003179 318.3339  41.7405 15.37487397 11402
KUIPER-00454            
1 68948U 26098AF  26195.16668980 -.00026570  00000+0 -33877-2 0  9998
2 68948  51.8998 304.9669 0001607 189.3897 124.3607 14.80935982  5808
KUIPER-00455            
1 68949U 26098AG  26195.16668980 -.00000653  00000+0 -43487-4 0  9993
2 68949  51.8964 304.0392 0014967 247.2827 224.1343 14.88584968  5231
KUIPER-00458            
1 68950U 26098AH  26194.54363610  .00010174  00000+0  28882-3 0  9996
2 68950  51.8780 300.1715 0002998 293.6819  66.3853 15.36797966 11408
KUIPER-00282            
1 69267U 26118A   26195.16668980 -.00526835  00000+0 -27347-1 0  9999
2 69267  51.8747 284.2120 0011254 295.2664  19.7193 15.17683663  4785
KUIPER-00383            
1 69268U 26118B   26194.80181015 -.00128940  00000+0 -41128-2 0  9998
2 69268  51.8579 285.4857 0014732 322.2200  37.7749 15.32326372  8060
KUIPER-00527            
1 69269U 26118C   26195.16668980 -.01051632  00000+0 -40663-1 0  9996
2 69269  51.8677 283.6210 0008840 283.0007 339.1101 15.28473806  5704
KUIPER-00562            
1 69270U 26118D   26195.20950684  .00013990  00000+0  37717-3 0  9998
2 69270  51.8718 282.2932 0000936  17.8207 342.2812 15.38076533  8143
KUIPER-00570            
1 69271U 26118E   26195.16668980  .00012092  00000+0  89450-3 0  9992
2 69271  51.8819 285.2583 0008429 291.8844 184.2468 15.03510405  5531
