{"fetched_at":"2026-07-14T17:40:21.416Z","source":"https://celestrak.org/NORAD/elements/gp.php?GROUP=kuiper&FORMAT=JSON","constellation":"kuiper","records":[{"OBJECT_NAME":"KUIPER-00438","OBJECT_ID":"2026-098X","EPOCH":"2026-07-14T04:00:01.998720","CLASSIFICATION_TYPE":"U","MEAN_MOTION":15.15889452,"ECCENTRICITY":0.0004705,"INCLINATION":51.887,"RA_OF_ASC_NODE":299.0397,"ARG_OF_PERICENTER":290.6286,"MEAN_ANOMALY":31.945,"EPHEMERIS_TYPE":0,"NORAD_CAT_ID":68940,"ELEMENT_SET_NO":999,"REV_AT_EPOCH":579,"BSTAR":-0.094259,"MEAN_MOTION_DOT":-0.0165408,"MEAN_MOTION_DDOT":0},{"OBJECT_NAME":"KUIPER-00439","OBJECT_ID":"2026-098Y","EPOCH":"2026-07-14T04:00:01.998720","CLASSIFICATION_TYPE":"U","MEAN_MOTION":15.18695588,"ECCENTRICITY":0.0003865,"INCLINATION":51.8839,"RA_OF_ASC_NODE":299.1536,"ARG_OF_PERICENTER":270.0609,"MEAN_ANOMALY":31.9603,"EPHEMERIS_TYPE":0,"NORAD_CAT_ID":68941,"ELEMENT_SET_NO":999,"REV_AT_EPOCH":407,"BSTAR":-0.089245,"MEAN_MOTION_DOT":-0.01693823,"MEAN_MOTION_DDOT":0},{"OBJECT_NAME":"KUIPER-00440","OBJECT_ID":"2026-098Z","EPOCH":"2026-07-13T14:25:13.743264","CLASSIFICATION_TYPE":"U","MEAN_MOTION":15.31482621,"ECCENTRICITY":0.0002624,"INCLINATION":51.8794,"RA_OF_ASC_NODE":301.2765,"ARG_OF_PERICENTER":296.2059,"MEAN_ANOMALY":63.8655,"EPHEMERIS_TYPE":0,"NORAD_CAT_ID":68942,"ELEMENT_SET_NO":999,"REV_AT_EPOCH":1139,"BSTAR":0.00031758,"MEAN_MOTION_DOT":0.00009444,"MEAN_MOTION_DDOT":0},{"OBJECT_NAME":"KUIPER-00442","OBJECT_ID":"2026-098AA","EPOCH":"2026-07-13T13:20:22.598304","CLASSIFICATION_TYPE":"U","MEAN_MOTION":15.34511403,"ECCENTRICITY":0.0003429,"INCLINATION":51.8806,"RA_OF_ASC_NODE":300.994,"ARG_OF_PERICENTER":257.7134,"MEAN_ANOMALY":102.3468,"EPHEMERIS_TYPE":0,"NORAD_CAT_ID":68943,"ELEMENT_SET_NO":999,"REV_AT_EPOCH":1139,"BSTAR":0.00035033,"MEAN_MOTION_DOT":0.0001153,"MEAN_MOTION_DDOT":0},{"OBJECT_NAME":"KUIPER-00446","OBJECT_ID":"2026-098AB","EPOCH":"2026-07-14T04:00:01.998720","CLASSIFICATION_TYPE":"U","MEAN_MOTION":15.27234003,"ECCENTRICITY":0.0004263,"INCLINATION":51.879,"RA_OF_ASC_NODE":298.2797,"ARG_OF_PERICENTER":240.0567,"MEAN_ANOMALY":120.0158,"EPHEMERIS_TYPE":0,"NORAD_CAT_ID":68944,"ELEMENT_SET_NO":999,"REV_AT_EPOCH":525,"BSTAR":-0.0427,"MEAN_MOTION_DOT":-0.01060492,"MEAN_MOTION_DDOT":0},{"OBJECT_NAME":"KUIPER-00451","OBJECT_ID":"2026-098AC","EPOCH":"2026-07-14T04:00:01.998720","CLASSIFICATION_TYPE":"U","MEAN_MOTION":14.86879458,"ECCENTRICITY":0.0004838,"INCLINATION":51.8983,"RA_OF_ASC_NODE":303.8033,"ARG_OF_PERICENTER":246.1714,"MEAN_ANOMALY":188.169,"EPHEMERIS_TYPE":0,"NORAD_CAT_ID":68945,"ELEMENT_SET_NO":999,"REV_AT_EPOCH":582,"BSTAR":-0.000036726,"MEAN_MOTION_DOT":-0.00000568,"MEAN_MOTION_DDOT":0},{"OBJECT_NAME":"KUIPER-00452","OBJECT_ID":"2026-098AD","EPOCH":"2026-07-13T13:21:53.853120","CLASSIFICATION_TYPE":"U","MEAN_MOTION":15.36120071,"ECCENTRICITY":0.000268,"INCLINATION":51.8762,"RA_OF_ASC_NODE":300.2404,"ARG_OF_PERICENTER":261.924,"MEAN_ANOMALY":98.1442,"EPHEMERIS_TYPE":0,"NORAD_CAT_ID":68946,"ELEMENT_SET_NO":999,"REV_AT_EPOCH":1140,"BSTAR":0.00037588,"MEAN_MOTION_DOT":0.00013069,"MEAN_MOTION_DDOT":0},{"OBJECT_NAME":"KUIPER-00453","OBJECT_ID":"2026-098AE","EPOCH":"2026-07-13T12:23:01.180032","CLASSIFICATION_TYPE":"U","MEAN_MOTION":15.37487397,"ECCENTRICITY":0.0003179,"INCLINATION":51.8759,"RA_OF_ASC_NODE":299.9786,"ARG_OF_PERICENTER":318.3339,"MEAN_ANOMALY":41.7405,"EPHEMERIS_TYPE":0,"NORAD_CAT_ID":68947,"ELEMENT_SET_NO":999,"REV_AT_EPOCH":1140,"BSTAR":0.00036109,"MEAN_MOTION_DOT":0.00013117,"MEAN_MOTION_DDOT":0},{"OBJECT_NAME":"KUIPER-00454","OBJECT_ID":"2026-098AF","EPOCH":"2026-07-14T04:00:01.998720","CLASSIFICATION_TYPE":"U","MEAN_MOTION":14.80935982,"ECCENTRICITY":0.0001607,"INCLINATION":51.8998,"RA_OF_ASC_NODE":304.9669,"ARG_OF_PERICENTER":189.3897,"MEAN_ANOMALY":124.3607,"EPHEMERIS_TYPE":0,"NORAD_CAT_ID":68948,"ELEMENT_SET_NO":999,"REV_AT_EPOCH":580,"BSTAR":-0.0033877,"MEAN_MOTION_DOT":-0.0002657,"MEAN_MOTION_DDOT":0},{"OBJECT_NAME":"KUIPER-00455","OBJECT_ID":"2026-098AG","EPOCH":"2026-07-14T04:00:01.998720","CLASSIFICATION_TYPE":"U","MEAN_MOTION":14.88584968,"ECCENTRICITY":0.0014967,"INCLINATION":51.8964,"RA_OF_ASC_NODE":304.0392,"ARG_OF_PERICENTER":247.2827,"MEAN_ANOMALY":224.1343,"EPHEMERIS_TYPE":0,"NORAD_CAT_ID":68949,"ELEMENT_SET_NO":999,"REV_AT_EPOCH":523,"BSTAR":-0.000043487,"MEAN_MOTION_DOT":-0.00000653,"MEAN_MOTION_DDOT":0},{"OBJECT_NAME":"KUIPER-00458","OBJECT_ID":"2026-098AH","EPOCH":"2026-07-13T13:02:50.159040","CLASSIFICATION_TYPE":"U","MEAN_MOTION":15.36797966,"ECCENTRICITY":0.0002998,"INCLINATION":51.878,"RA_OF_ASC_NODE":300.1715,"ARG_OF_PERICENTER":293.6819,"MEAN_ANOMALY":66.3853,"EPHEMERIS_TYPE":0,"NORAD_CAT_ID":68950,"ELEMENT_SET_NO":999,"REV_AT_EPOCH":1140,"BSTAR":0.00028882,"MEAN_MOTION_DOT":0.00010174,"MEAN_MOTION_DDOT":0},{"OBJECT_NAME":"KUIPER-00282","OBJECT_ID":"2026-118A","EPOCH":"2026-07-14T04:00:01.998720","CLASSIFICATION_TYPE":"U","MEAN_MOTION":15.17683663,"ECCENTRICITY":0.0011254,"INCLINATION":51.8747,"RA_OF_ASC_NODE":284.212,"ARG_OF_PERICENTER":295.2664,"MEAN_ANOMALY":19.7193,"EPHEMERIS_TYPE":0,"NORAD_CAT_ID":69267,"ELEMENT_SET_NO":999,"REV_AT_EPOCH":478,"BSTAR":-0.027347,"MEAN_MOTION_DOT":-0.00526835,"MEAN_MOTION_DDOT":0},{"OBJECT_NAME":"KUIPER-00383","OBJECT_ID":"2026-118B","EPOCH":"2026-07-13T19:14:36.396960","CLASSIFICATION_TYPE":"U","MEAN_MOTION":15.32326372,"ECCENTRICITY":0.0014732,"INCLINATION":51.8579,"RA_OF_ASC_NODE":285.4857,"ARG_OF_PERICENTER":322.22,"MEAN_ANOMALY":37.7749,"EPHEMERIS_TYPE":0,"NORAD_CAT_ID":69268,"ELEMENT_SET_NO":999,"REV_AT_EPOCH":806,"BSTAR":-0.0041128,"MEAN_MOTION_DOT":-0.0012894,"MEAN_MOTION_DDOT":0},{"OBJECT_NAME":"KUIPER-00527","OBJECT_ID":"2026-118C","EPOCH":"2026-07-14T04:00:01.998720","CLASSIFICATION_TYPE":"U","MEAN_MOTION":15.28473806,"ECCENTRICITY":0.000884,"INCLINATION":51.8677,"RA_OF_ASC_NODE":283.621,"ARG_OF_PERICENTER":283.0007,"MEAN_ANOMALY":339.1101,"EPHEMERIS_TYPE":0,"NORAD_CAT_ID":69269,"ELEMENT_SET_NO":999,"REV_AT_EPOCH":570,"BSTAR":-0.040663,"MEAN_MOTION_DOT":-0.01051632,"MEAN_MOTION_DDOT":0},{"OBJECT_NAME":"KUIPER-00562","OBJECT_ID":"2026-118D","EPOCH":"2026-07-14T05:01:41.390976","CLASSIFICATION_TYPE":"U","MEAN_MOTION":15.38076533,"ECCENTRICITY":0.0000936,"INCLINATION":51.8718,"RA_OF_ASC_NODE":282.2932,"ARG_OF_PERICENTER":17.8207,"MEAN_ANOMALY":342.2812,"EPHEMERIS_TYPE":0,"NORAD_CAT_ID":69270,"ELEMENT_SET_NO":999,"REV_AT_EPOCH":814,"BSTAR":0.00037717,"MEAN_MOTION_DOT":0.0001399,"MEAN_MOTION_DDOT":0},{"OBJECT_NAME":"KUIPER-00570","OBJECT_ID":"2026-118E","EPOCH":"2026-07-14T04:00:01.998720","CLASSIFICATION_TYPE":"U","MEAN_MOTION":15.03510405,"ECCENTRICITY":0.0008429,"INCLINATION":51.8819,"RA_OF_ASC_NODE":285.2583,"ARG_OF_PERICENTER":291.8844,"MEAN_ANOMALY":184.2468,"EPHEMERIS_TYPE":0,"NORAD_CAT_ID":69271,"ELEMENT_SET_NO":999,"REV_AT_EPOCH":553,"BSTAR":0.0008945,"MEAN_MOTION_DOT":0.00012092,"MEAN_MOTION_DDOT":0}]}
